SOAR                    
1 48851U 98067SM  21272.34142720  .00059355  00000-0  86618-3 0  9992
2 48851  51.6382 185.2744 0005639 147.4290 212.7050 15.55076796 16683
BD-28                   
1 48867U 98067SN  21272.17716525  .00017317  00000-0  29413-3 0  9992
2 48867  51.6413 187.1894 0003109 178.7459 181.3539 15.51555536 15352
MIR-SAT 1               
1 48868U 98067SP  21272.15885766  .00032594  00000-0  52389-3 0  9997
2 48868  51.6408 187.0674 0003786 147.2774 212.8451 15.52697264 15386
